start=new Date('2022-06-16T00:00:00.000Z').valueOf();
sats=[{"MEAN_MOTION_DDOT":"0.0000000000000","MEAN_ANOMALY":"292.0124","COUNTRY_CODE":"US","MEAN_MOTION":"15.06398230","MEAN_MOTION_DOT":"0.00001044","APOAPSIS":"548.378","TLE_LINE1":"1 45565U 20025AL  22166.50268208  .00001044  00000-0  88965-4 0  9991","RCS_SIZE":"LARGE","TIME_SYSTEM":"UTC","TLE_LINE2":"2 45565  53.0553  86.2008 0001673  68.1043 292.0124 15.06398230119908","EPHEMERIS_TYPE":"0","SEMIMAJOR_AXIS":"6925.354","GP_ID":"206204998","ELEMENT_SET_NO":"999","SITE":"AFETR","NORAD_CAT_ID":"45565","BSTAR":"0.00008896500000","LAUNCH_DATE":"2020-04-22","DECAY_DATE":null,"MEAN_ELEMENT_THEORY":"SGP4","INCLINATION":"53.0553","CLASSIFICATION_TYPE":"U","RA_OF_ASC_NODE":"86.2008","OBJECT_NAME":"STARLINK-1357","CENTER_NAME":"EARTH","REF_FRAME":"TEME","ARG_OF_PERICENTER":"68.1043","PERIAPSIS":"546.060","ECCENTRICITY":"0.00016730","OBJECT_TYPE":"PAYLOAD","EPOCH":"2022-06-15T12:03:51.731712","REV_AT_EPOCH":"11990","FILE":"3496794","OBJECT_ID":"2020-025AL","PERIOD":"95.592"},{"PERIOD":"95.593","ECCENTRICITY":"0.00022600","OBJECT_TYPE":"PAYLOAD","FILE":"3496794","OBJECT_ID":"2020-025AM","EPOCH":"2022-06-15T12:25:06.306240","REV_AT_EPOCH":"11990","PERIAPSIS":"545.680","CENTER_NAME":"EARTH","OBJECT_NAME":"STARLINK-1358","ARG_OF_PERICENTER":"69.0130","REF_FRAME":"TEME","CLASSIFICATION_TYPE":"U","RA_OF_ASC_NODE":"86.1452","MEAN_ELEMENT_THEORY":"SGP4","INCLINATION":"53.0557","BSTAR":"-0.00005203200000","LAUNCH_DATE":"2020-04-22","DECAY_DATE":null,"NORAD_CAT_ID":"45566","SITE":"AFETR","GP_ID":"206204745","ELEMENT_SET_NO":"999","EPHEMERIS_TYPE":"0","SEMIMAJOR_AXIS":"6925.380","TLE_LINE2":"2 45566  53.0557  86.1452 0002260  69.0130 291.1101 15.06389690119900","TIME_SYSTEM":"UTC","TLE_LINE1":"1 45566U 20025AM  22166.51743410 -.00001057  00000-0 -52032-4 0  9998","RCS_SIZE":"LARGE","MEAN_ANOMALY":"291.1101","COUNTRY_CODE":"US","MEAN_MOTION_DDOT":"0.0000000000000","APOAPSIS":"548.810","MEAN_MOTION_DOT":"-0.00001057","MEAN_MOTION":"15.06389690"},{"SITE":"AFETR","NORAD_CAT_ID":"45567","ELEMENT_SET_NO":"999","GP_ID":"206205490","SEMIMAJOR_AXIS":"6925.362","EPHEMERIS_TYPE":"0","TIME_SYSTEM":"UTC","TLE_LINE2":"2 45567  53.0551  87.5647 0001670  69.5037 290.6131 15.06395717119860","RCS_SIZE":"LARGE","TLE_LINE1":"1 45567U 20025AN  22166.19675083 -.00001068  00000-0 -52800-4 0  9998","MEAN_MOTION":"15.06395717","APOAPSIS":"548.383","MEAN_MOTION_DOT":"-0.00001068","MEAN_MOTION_DDOT":"0.0000000000000","COUNTRY_CODE":"US","MEAN_ANOMALY":"290.6131","PERIOD":"95.592","REV_AT_EPOCH":"11986","EPOCH":"2022-06-15T04:43:19.271712","OBJECT_ID":"2020-025AN","FILE":"3496794","OBJECT_TYPE":"PAYLOAD","ECCENTRICITY":"0.00016700","PERIAPSIS":"546.070","REF_FRAME":"TEME","ARG_OF_PERICENTER":"69.5037","OBJECT_NAME":"STARLINK-1361","CENTER_NAME":"EARTH","RA_OF_ASC_NODE":"87.5647","CLASSIFICATION_TYPE":"U","INCLINATION":"53.0551","MEAN_ELEMENT_THEORY":"SGP4","DECAY_DATE":null,"LAUNCH_DATE":"2020-04-22","BSTAR":"-0.00005280000000"},{"INCLINATION":"53.0548","MEAN_ELEMENT_THEORY":"SGP4","DECAY_DATE":null,"BSTAR":"0.00000708240000","LAUNCH_DATE":"2020-04-22","ARG_OF_PERICENTER":"72.8828","REF_FRAME":"TEME","CENTER_NAME":"EARTH","OBJECT_NAME":"STARLINK-1363","RA_OF_ASC_NODE":"85.9654","CLASSIFICATION_TYPE":"U","PERIAPSIS":"545.959","PERIOD":"95.592","FILE":"3496999","OBJECT_ID":"2020-025AP","EPOCH":"2022-06-15T14:37:49.790784","REV_AT_EPOCH":"11991","ECCENTRICITY":"0.00018260","OBJECT_TYPE":"PAYLOAD","RCS_SIZE":"LARGE","TLE_LINE1":"1 45568U 20025AP  22166.60960406 -.00000176  00000-0  70824-5 0  9996","APOAPSIS":"548.488","MEAN_MOTION_DOT":"-0.00000176","MEAN_MOTION":"15.06396620","MEAN_ANOMALY":"287.2361","COUNTRY_CODE":"US","MEAN_MOTION_DDOT":"0.0000000000000","SEMIMAJOR_AXIS":"6925.359","EPHEMERIS_TYPE":"0","TIME_SYSTEM":"UTC","TLE_LINE2":"2 45568  53.0548  85.9654 0001826  72.8828 287.2361 15.06396620119912","SITE":"AFETR","NORAD_CAT_ID":"45568","ELEMENT_SET_NO":"999","GP_ID":"206235936"},{"OBJECT_TYPE":"PAYLOAD","ECCENTRICITY":"0.00021860","REV_AT_EPOCH":"11929","EPOCH":"2022-06-15T11:10:47.070048","FILE":"3496891","OBJECT_ID":"2020-025AQ","PERIOD":"95.592","PERIAPSIS":"545.709","CLASSIFICATION_TYPE":"U","RA_OF_ASC_NODE":"86.3702","OBJECT_NAME":"STARLINK-1366","CENTER_NAME":"EARTH","REF_FRAME":"TEME","ARG_OF_PERICENTER":"63.1209","LAUNCH_DATE":"2020-04-22","BSTAR":"-0.00004632500000","DECAY_DATE":null,"MEAN_ELEMENT_THEORY":"SGP4","INCLINATION":"53.0565","GP_ID":"206213251","ELEMENT_SET_NO":"999","SITE":"AFETR","NORAD_CAT_ID":"45569","TLE_LINE2":"2 45569  53.0565  86.3702 0002186  63.1209 297.0003 15.06396827119299","TIME_SYSTEM":"UTC","EPHEMERIS_TYPE":"0","SEMIMAJOR_AXIS":"6925.358","MEAN_MOTION_DDOT":"0.0000000000000","COUNTRY_CODE":"US","MEAN_ANOMALY":"297.0003","MEAN_MOTION":"15.06396827","MEAN_MOTION_DOT":"-0.00000972","APOAPSIS":"548.737","TLE_LINE1":"1 45569U 20025AQ  22166.46582257 -.00000972  00000-0 -46325-4 0  9998","RCS_SIZE":"LARGE"},{"PERIAPSIS":"546.151","PERIOD":"95.592","OBJECT_TYPE":"PAYLOAD","ECCENTRICITY":"0.00015550","OBJECT_ID":"2020-025AR","FILE":"3496999","EPOCH":"2022-06-15T20:33:24.516864","REV_AT_EPOCH":"11995","MEAN_ELEMENT_THEORY":"SGP4","INCLINATION":"53.0552","BSTAR":"0.00000130070000","LAUNCH_DATE":"2020-04-22","DECAY_DATE":null,"CENTER_NAME":"EARTH","OBJECT_NAME":"STARLINK-1376","ARG_OF_PERICENTER":"67.9874","REF_FRAME":"TEME","CLASSIFICATION_TYPE":"U","RA_OF_ASC_NODE":"84.6068","EPHEMERIS_TYPE":"0","SEMIMAJOR_AXIS":"6925.363","TLE_LINE2":"2 45570  53.0552  84.6068 0001555  67.9874 292.1280 15.06395336119952","TIME_SYSTEM":"UTC","NORAD_CAT_ID":"45570","SITE":"AFETR","GP_ID":"206234934","ELEMENT_SET_NO":"999","TLE_LINE1":"1 45570U 20025AR  22166.85653376 -.00000262  00000-0  13007-5 0  9997","RCS_SIZE":"LARGE","COUNTRY_CODE":"US","MEAN_ANOMALY":"292.1280","MEAN_MOTION_DDOT":"0.0000000000000","MEAN_MOTION_DOT":"-0.00000262","APOAPSIS":"548.305","MEAN_MOTION":"15.06395336"},{"GP_ID":"206211985","ELEMENT_SET_NO":"999","SITE":"AFETR","NORAD_CAT_ID":"45571","TLE_LINE2":"2 45571  53.0538  76.3336 0001273  71.5910 288.5217 15.06398066119448","TIME_SYSTEM":"UTC","EPHEMERIS_TYPE":"0","SEMIMAJOR_AXIS":"6925.354","MEAN_MOTION_DDOT":"0.0000000000000","MEAN_ANOMALY":"288.5217","COUNTRY_CODE":"US","MEAN_MOTION":"15.06398066","APOAPSIS":"548.101","MEAN_MOTION_DOT":"-0.00000396","TLE_LINE1":"1 45571U 20025AS  22166.47411809 -.00000396  00000-0 -76637-5 0  9996","RCS_SIZE":"LARGE","OBJECT_TYPE":"PAYLOAD","ECCENTRICITY":"0.00012730","REV_AT_EPOCH":"11944","EPOCH":"2022-06-15T11:22:43.802976","OBJECT_ID":"2020-025AS","FILE":"3496838","PERIOD":"95.592","PERIAPSIS":"546.338","CLASSIFICATION_TYPE":"U","RA_OF_ASC_NODE":"76.3336","OBJECT_NAME":"STARLINK-1261","CENTER_NAME":"EARTH","REF_FRAME":"TEME","ARG_OF_PERICENTER":"71.5910","LAUNCH_DATE":"2020-04-22","BSTAR":"-0.00000766370000","DECAY_DATE":null,"MEAN_ELEMENT_THEORY":"SGP4","INCLINATION":"53.0538"},{"INCLINATION":"53.0542","MEAN_ELEMENT_THEORY":"SGP4","DECAY_DATE":null,"LAUNCH_DATE":"2020-04-22","BSTAR":"0.00000655140000","REF_FRAME":"TEME","ARG_OF_PERICENTER":"71.3445","OBJECT_NAME":"STARLINK-1320","CENTER_NAME":"EARTH","RA_OF_ASC_NODE":"74.8836","CLASSIFICATION_TYPE":"U","PERIAPSIS":"546.214","PERIOD":"95.592","REV_AT_EPOCH":"12009","EPOCH":"2022-06-15T19:09:48.422304","FILE":"3496999","OBJECT_ID":"2020-025AT","ECCENTRICITY":"0.00014570","OBJECT_TYPE":"PAYLOAD","RCS_SIZE":"LARGE","TLE_LINE1":"1 45572U 20025AT  22166.79847711 -.00000184  00000-0  65514-5 0  9993","MEAN_MOTION":"15.06396971","APOAPSIS":"548.232","MEAN_MOTION_DOT":"-0.00000184","MEAN_MOTION_DDOT":"0.0000000000000","COUNTRY_CODE":"US","MEAN_ANOMALY":"288.7702","SEMIMAJOR_AXIS":"6925.358","EPHEMERIS_TYPE":"0","TIME_SYSTEM":"UTC","TLE_LINE2":"2 45572  53.0542  74.8836 0001457  71.3445 288.7702 15.06396971120094","NORAD_CAT_ID":"45572","SITE":"AFETR","ELEMENT_SET_NO":"999","GP_ID":"206235437"},{"NORAD_CAT_ID":"45573","SITE":"AFETR","ELEMENT_SET_NO":"999","GP_ID":"206234185","SEMIMAJOR_AXIS":"6925.330","EPHEMERIS_TYPE":"0","TLE_LINE2":"2 45573  53.0556  74.6816 0001751  65.9446 294.1726 15.06405912119791","TIME_SYSTEM":"UTC","RCS_SIZE":"LARGE","TLE_LINE1":"1 45573U 20025AU  22166.84270709 -.00000573  00000-0 -19579-4 0  9999","MEAN_MOTION":"15.06405912","MEAN_MOTION_DOT":"-0.00000573","APOAPSIS":"548.408","MEAN_MOTION_DDOT":"0.0000000000000","COUNTRY_CODE":"US","MEAN_ANOMALY":"294.1726","PERIOD":"95.592","EPOCH":"2022-06-15T20:13:29.892576","REV_AT_EPOCH":"11979","FILE":"3496999","OBJECT_ID":"2020-025AU","OBJECT_TYPE":"PAYLOAD","ECCENTRICITY":"0.00017510","PERIAPSIS":"545.983","REF_FRAME":"TEME","ARG_OF_PERICENTER":"65.9446","OBJECT_NAME":"STARLINK-1321","CENTER_NAME":"EARTH","RA_OF_ASC_NODE":"74.6816","CLASSIFICATION_TYPE":"U","INCLINATION":"53.0556","MEAN_ELEMENT_THEORY":"SGP4","DECAY_DATE":null,"LAUNCH_DATE":"2020-04-22","BSTAR":"-0.00001957900000"},{"PERIAPSIS":"545.945","PERIOD":"95.592","EPOCH":"2022-06-15T11:17:25.228896","REV_AT_EPOCH":"11944","OBJECT_ID":"2020-025AV","FILE":"3496817","ECCENTRICITY":"0.00018510","OBJECT_TYPE":"PAYLOAD","INCLINATION":"53.0545","MEAN_ELEMENT_THEORY":"SGP4","DECAY_DATE":null,"LAUNCH_DATE":"2020-04-22","BSTAR":"-0.00000094542000","REF_FRAME":"TEME","ARG_OF_PERICENTER":"71.8390","OBJECT_NAME":"STARLINK-1324","CENTER_NAME":"EARTH","RA_OF_ASC_NODE":"76.3505","CLASSIFICATION_TYPE":"U","SEMIMAJOR_AXIS":"6925.362","EPHEMERIS_TYPE":"0","TLE_LINE2":"2 45574  53.0545  76.3505 0001851  71.8390 288.2800 15.06395601119441","TIME_SYSTEM":"UTC","NORAD_CAT_ID":"45574","SITE":"AFETR","ELEMENT_SET_NO":"999","GP_ID":"206211522","RCS_SIZE":"LARGE","TLE_LINE1":"1 45574U 20025AV  22166.47043089 -.00000296  00000-0 -94542-6 0  9995","MEAN_MOTION":"15.06395601","MEAN_MOTION_DOT":"-0.00000296","APOAPSIS":"548.509","MEAN_MOTION_DDOT":"0.0000000000000","MEAN_ANOMALY":"288.2800","COUNTRY_CODE":"US"}];
